start=new Date('2022-11-03T00:00:00.000Z').valueOf();
sats=[{"GP_ID":"216749932","SITE":"AFETR","TLE_LINE1":"1 46054U 20055AD  22306.45872690  .00001324  00000-0  10778-3 0  9991","ECCENTRICITY":"0.00013880","BSTAR":"0.00010778000000","DECAY_DATE":null,"MEAN_MOTION":"15.06396950","PERIOD":"95.592","RA_OF_ASC_NODE":"207.9288","MEAN_MOTION_DOT":"0.00001324","REV_AT_EPOCH":"12466","ELEMENT_SET_NO":"999","FILE":"3642416","CENTER_NAME":"EARTH","REF_FRAME":"TEME","MEAN_MOTION_DDOT":"0.0000000000000","INCLINATION":"53.0538","CLASSIFICATION_TYPE":"U","NORAD_CAT_ID":"46054","OBJECT_NAME":"STARLINK-1548","PERIAPSIS":"546.262","RCS_SIZE":"LARGE","MEAN_ELEMENT_THEORY":"SGP4","EPHEMERIS_TYPE":"0","SEMIMAJOR_AXIS":"6925.358","OBJECT_TYPE":"PAYLOAD","OBJECT_ID":"2020-055AD","MEAN_ANOMALY":"275.2821","EPOCH":"2022-11-02T11:00:34.004160","TLE_LINE2":"2 46054  53.0538 207.9288 0001388  84.8326 275.2821 15.06396950124662","ARG_OF_PERICENTER":"84.8326","LAUNCH_DATE":"2020-08-07","TIME_SYSTEM":"UTC","COUNTRY_CODE":"US","APOAPSIS":"548.184"},{"CLASSIFICATION_TYPE":"U","MEAN_MOTION_DDOT":"0.0000000000000","INCLINATION":"53.0531","REF_FRAME":"TEME","CENTER_NAME":"EARTH","RCS_SIZE":"LARGE","PERIAPSIS":"546.189","EPHEMERIS_TYPE":"0","MEAN_ELEMENT_THEORY":"SGP4","NORAD_CAT_ID":"46055","OBJECT_NAME":"STARLINK-1554","MEAN_ANOMALY":"282.1628","OBJECT_ID":"2020-055AE","EPOCH":"2022-11-02T12:14:52.421280","SEMIMAJOR_AXIS":"6925.373","OBJECT_TYPE":"PAYLOAD","APOAPSIS":"548.286","COUNTRY_CODE":"US","TLE_LINE2":"2 46055  53.0531 207.6761 0001514  77.9530 282.1628 15.06392040124679","ARG_OF_PERICENTER":"77.9530","TIME_SYSTEM":"UTC","LAUNCH_DATE":"2020-08-07","SITE":"AFETR","ECCENTRICITY":"0.00015140","BSTAR":"0.00005269200000","TLE_LINE1":"1 46055U 20055AE  22306.51032895  .00000503  00000-0  52692-4 0  9994","GP_ID":"216750684","PERIOD":"95.593","MEAN_MOTION":"15.06392040","DECAY_DATE":null,"REV_AT_EPOCH":"12467","ELEMENT_SET_NO":"999","MEAN_MOTION_DOT":"0.00000503","RA_OF_ASC_NODE":"207.6761","FILE":"3642416"},{"SEMIMAJOR_AXIS":"6925.327","OBJECT_TYPE":"PAYLOAD","OBJECT_ID":"2020-055AF","MEAN_ANOMALY":"315.0359","EPOCH":"2022-11-02T11:09:48.397536","TLE_LINE2":"2 46056  53.0540 207.8865 0001689  45.0767 315.0359 15.06406950124671","ARG_OF_PERICENTER":"45.0767","LAUNCH_DATE":"2020-08-07","TIME_SYSTEM":"UTC","COUNTRY_CODE":"US","APOAPSIS":"548.362","CENTER_NAME":"EARTH","REF_FRAME":"TEME","INCLINATION":"53.0540","MEAN_MOTION_DDOT":"0.0000000000000","CLASSIFICATION_TYPE":"U","NORAD_CAT_ID":"46056","OBJECT_NAME":"STARLINK-1561","PERIAPSIS":"546.023","RCS_SIZE":"LARGE","MEAN_ELEMENT_THEORY":"SGP4","EPHEMERIS_TYPE":"0","RA_OF_ASC_NODE":"207.8865","MEAN_MOTION_DOT":"0.00006170","REV_AT_EPOCH":"12467","ELEMENT_SET_NO":"999","FILE":"3642416","GP_ID":"216750927","SITE":"AFETR","TLE_LINE1":"1 46056U 20055AF  22306.46514349  .00006170  00000-0  43267-3 0  9991","BSTAR":"0.00043267000000","ECCENTRICITY":"0.00016890","DECAY_DATE":null,"MEAN_MOTION":"15.06406950","PERIOD":"95.592"},{"RCS_SIZE":"LARGE","PERIAPSIS":"546.249","MEAN_ELEMENT_THEORY":"SGP4","EPHEMERIS_TYPE":"0","NORAD_CAT_ID":"46058","OBJECT_NAME":"STARLINK-1564","MEAN_MOTION_DDOT":"0.0000000000000","INCLINATION":"53.0556","CLASSIFICATION_TYPE":"U","CENTER_NAME":"EARTH","REF_FRAME":"TEME","COUNTRY_CODE":"US","APOAPSIS":"548.216","TLE_LINE2":"2 46058  53.0556 209.3254 0001420  51.9140 308.1977 15.06393713124618","ARG_OF_PERICENTER":"51.9140","TIME_SYSTEM":"UTC","LAUNCH_DATE":"2020-08-07","OBJECT_ID":"2020-055AH","MEAN_ANOMALY":"308.1977","EPOCH":"2022-11-02T03:29:24.038304","SEMIMAJOR_AXIS":"6925.368","OBJECT_TYPE":"PAYLOAD","MEAN_MOTION":"15.06393713","PERIOD":"95.593","DECAY_DATE":null,"SITE":"AFETR","TLE_LINE1":"1 46058U 20055AH  22306.14541711  .00003321  00000-0  24181-3 0  9990","ECCENTRICITY":"0.00014200","BSTAR":"0.00024181000000","GP_ID":"216750183","FILE":"3642416","REV_AT_EPOCH":"12461","ELEMENT_SET_NO":"999","RA_OF_ASC_NODE":"209.3254","MEAN_MOTION_DOT":"0.00003321"},{"FILE":"3643025","ELEMENT_SET_NO":"999","REV_AT_EPOCH":"12467","RA_OF_ASC_NODE":"206.3178","MEAN_MOTION_DOT":"0.00000549","PERIOD":"95.593","MEAN_MOTION":"15.06386395","DECAY_DATE":null,"BSTAR":"0.00005576000000","ECCENTRICITY":"0.00012690","TLE_LINE1":"1 46059U 20055AJ  22306.81625907  .00000549  00000-0  55760-4 0  9992","SITE":"AFETR","GP_ID":"216787294","APOAPSIS":"548.134","COUNTRY_CODE":"US","TIME_SYSTEM":"UTC","LAUNCH_DATE":"2020-08-07","TLE_LINE2":"2 46059  53.0544 206.3178 0001269  78.3514 281.7617 15.06386395124678","ARG_OF_PERICENTER":"78.3514","EPOCH":"2022-11-02T19:35:24.783648","MEAN_ANOMALY":"281.7617","OBJECT_ID":"2020-055AJ","OBJECT_TYPE":"PAYLOAD","SEMIMAJOR_AXIS":"6925.390","EPHEMERIS_TYPE":"0","MEAN_ELEMENT_THEORY":"SGP4","RCS_SIZE":"LARGE","PERIAPSIS":"546.376","OBJECT_NAME":"STARLINK-1570","NORAD_CAT_ID":"46059","CLASSIFICATION_TYPE":"U","MEAN_MOTION_DDOT":"0.0000000000000","INCLINATION":"53.0544","REF_FRAME":"TEME","CENTER_NAME":"EARTH"},{"FILE":"3642853","RA_OF_ASC_NODE":"209.3142","MEAN_MOTION_DOT":"0.00001250","ELEMENT_SET_NO":"999","REV_AT_EPOCH":"12408","DECAY_DATE":null,"MEAN_MOTION":"15.06387440","PERIOD":"95.593","GP_ID":"216763258","TLE_LINE1":"1 46060U 20055AK  22306.14907997  .00001250  00000-0  10282-3 0  9991","BSTAR":"0.00010282000000","ECCENTRICITY":"0.00015160","SITE":"AFETR","LAUNCH_DATE":"2020-08-07","TIME_SYSTEM":"UTC","ARG_OF_PERICENTER":"56.3877","TLE_LINE2":"2 46060  53.0544 209.3142 0001516  56.3877 303.7256 15.06387440124088","COUNTRY_CODE":"US","APOAPSIS":"548.302","OBJECT_TYPE":"PAYLOAD","SEMIMAJOR_AXIS":"6925.387","EPOCH":"2022-11-02T03:34:40.509408","OBJECT_ID":"2020-055AK","MEAN_ANOMALY":"303.7256","OBJECT_NAME":"STARLINK-1572","NORAD_CAT_ID":"46060","MEAN_ELEMENT_THEORY":"SGP4","EPHEMERIS_TYPE":"0","PERIAPSIS":"546.202","RCS_SIZE":"LARGE","CENTER_NAME":"EARTH","REF_FRAME":"TEME","MEAN_MOTION_DDOT":"0.0000000000000","INCLINATION":"53.0544","CLASSIFICATION_TYPE":"U"},{"REV_AT_EPOCH":"12471","ELEMENT_SET_NO":"999","MEAN_MOTION_DOT":"-0.00002472","RA_OF_ASC_NODE":"206.3699","FILE":"3643025","SITE":"AFETR","TLE_LINE1":"1 46061U 20055AL  22306.80520113 -.00002472  00000-0 -14720-3 0  9996","BSTAR":"-0.00014720000000","ECCENTRICITY":"0.00008770","GP_ID":"216786296","MEAN_MOTION":"15.06388704","PERIOD":"95.593","DECAY_DATE":null,"OBJECT_ID":"2020-055AL","MEAN_ANOMALY":"249.5508","EPOCH":"2022-11-02T19:19:29.377632","SEMIMAJOR_AXIS":"6925.383","OBJECT_TYPE":"PAYLOAD","COUNTRY_CODE":"US","APOAPSIS":"547.856","TLE_LINE2":"2 46061  53.0567 206.3699 0000877 110.5575 249.5508 15.06388704124716","ARG_OF_PERICENTER":"110.5575","TIME_SYSTEM":"UTC","LAUNCH_DATE":"2020-08-07","INCLINATION":"53.0567","MEAN_MOTION_DDOT":"0.0000000000000","CLASSIFICATION_TYPE":"U","CENTER_NAME":"EARTH","REF_FRAME":"TEME","RCS_SIZE":"LARGE","PERIAPSIS":"546.641","MEAN_ELEMENT_THEORY":"SGP4","EPHEMERIS_TYPE":"0","NORAD_CAT_ID":"46061","OBJECT_NAME":"STARLINK-1573"},{"CENTER_NAME":"EARTH","REF_FRAME":"TEME","MEAN_MOTION_DDOT":"0.0000000000000","INCLINATION":"53.0546","CLASSIFICATION_TYPE":"U","OBJECT_NAME":"STARLINK-1574","NORAD_CAT_ID":"46062","MEAN_ELEMENT_THEORY":"SGP4","EPHEMERIS_TYPE":"0","RCS_SIZE":"LARGE","PERIAPSIS":"545.987","OBJECT_TYPE":"PAYLOAD","SEMIMAJOR_AXIS":"6925.386","EPOCH":"2022-11-02T10:34:01.438752","OBJECT_ID":"2020-055AM","MEAN_ANOMALY":"305.4006","LAUNCH_DATE":"2020-08-07","TIME_SYSTEM":"UTC","TLE_LINE2":"2 46062  53.0546 207.9883 0001825  54.7153 305.4006 15.06387808124620","ARG_OF_PERICENTER":"54.7153","COUNTRY_CODE":"US","APOAPSIS":"548.515","GP_ID":"216749684","TLE_LINE1":"1 46062U 20055AM  22306.44029443  .00001019  00000-0  87315-4 0  9992","BSTAR":"0.00008731500000","ECCENTRICITY":"0.00018250","SITE":"AFETR","DECAY_DATE":null,"MEAN_MOTION":"15.06387808","PERIOD":"95.593","RA_OF_ASC_NODE":"207.9883","MEAN_MOTION_DOT":"0.00001019","ELEMENT_SET_NO":"999","REV_AT_EPOCH":"12462","FILE":"3642416"},{"EPOCH":"2022-11-02T20:01:59.860704","MEAN_ANOMALY":"289.8274","OBJECT_ID":"2020-055AN","OBJECT_TYPE":"PAYLOAD","SEMIMAJOR_AXIS":"6925.462","APOAPSIS":"548.051","COUNTRY_CODE":"US","TIME_SYSTEM":"UTC","LAUNCH_DATE":"2020-08-07","TLE_LINE2":"2 46063  53.0549 206.2320 0001044  70.2827 289.8274 15.06362827124712","ARG_OF_PERICENTER":"70.2827","CLASSIFICATION_TYPE":"U","INCLINATION":"53.0549","MEAN_MOTION_DDOT":"0.0000000000000","REF_FRAME":"TEME","CENTER_NAME":"EARTH","EPHEMERIS_TYPE":"0","MEAN_ELEMENT_THEORY":"SGP4","RCS_SIZE":"LARGE","PERIAPSIS":"546.604","OBJECT_NAME":"STARLINK-1577","NORAD_CAT_ID":"46063","ELEMENT_SET_NO":"999","REV_AT_EPOCH":"12471","MEAN_MOTION_DOT":"-0.00002851","RA_OF_ASC_NODE":"206.2320","FILE":"3643025","ECCENTRICITY":"0.00010440","BSTAR":"-0.00017276000000","TLE_LINE1":"1 46063U 20055AN  22306.83472061 -.00002851  00000-0 -17276-3 0  9999","SITE":"AFETR","GP_ID":"216787794","PERIOD":"95.594","MEAN_MOTION":"15.06362827","DECAY_DATE":null},{"TLE_LINE2":"2 46064  53.0545 206.9772 0001835  53.1617 306.9540 15.06387718124164","ARG_OF_PERICENTER":"53.1617","TIME_SYSTEM":"UTC","LAUNCH_DATE":"2020-08-07","APOAPSIS":"548.522","COUNTRY_CODE":"US","SEMIMAJOR_AXIS":"6925.386","OBJECT_TYPE":"PAYLOAD","MEAN_ANOMALY":"306.9540","OBJECT_ID":"2020-055AP","EPOCH":"2022-11-02T16:03:06.518880","NORAD_CAT_ID":"46064","OBJECT_NAME":"STARLINK-1583","RCS_SIZE":"LARGE","PERIAPSIS":"545.980","EPHEMERIS_TYPE":"0","MEAN_ELEMENT_THEORY":"SGP4","REF_FRAME":"TEME","CENTER_NAME":"EARTH","CLASSIFICATION_TYPE":"U","MEAN_MOTION_DDOT":"0.0000000000000","INCLINATION":"53.0545","FILE":"3642745","MEAN_MOTION_DOT":"0.00000945","RA_OF_ASC_NODE":"206.9772","REV_AT_EPOCH":"12416","ELEMENT_SET_NO":"999","DECAY_DATE":null,"PERIOD":"95.593","MEAN_MOTION":"15.06387718","GP_ID":"216761083","SITE":"AFETR","ECCENTRICITY":"0.00018350","BSTAR":"0.00008239700000","TLE_LINE1":"1 46064U 20055AP  22306.66882545  .00000945  00000-0  82397-4 0  9990"}];
